[
  {
    "OBJECT_NAME": "STARLINK-1298",
    "OBJECT_ID": "20019BF",
    "EPOCH": "2025-11-11T04:30:37.321344",
    "MEAN_MOTION": 15.54476208,
    "ECCENTRICITY": 0.0008838,
    "INCLINATION": 53.0481,
    "RA_OF_ASC_NODE": 281.1274,
    "ARG_OF_PERICENTER": 0.328,
    "MEAN_ANOMALY": 359.7734,
    "EPHEMERIS_TYPE": 0,
    "CLASSIFICATION_TYPE": "U",
    "NORAD_CAT_ID": 45413,
    "ELEMENT_SET_NO": 999,
    "REV_AT_EPOCH": 31248,
    "BSTAR": 0.00074105,
    "MEAN_MOTION_DOT": 0.00049521,
    "MEAN_MOTION_DDOT": 0.0,
    "TLE_LINE1": "1 45413U 20019BF  25315.18793196  .00049521  00000+0  74105-3 0  9999",
    "TLE_LINE2": "2 45413  53.0481 281.1274 0008838   0.3280 359.7734 15.54476208312483",
    "COMMENT": "Grouped by shell and plane from TLE"
  },
  {
    "OBJECT_NAME": "STARLINK-1681",
    "OBJECT_ID": "20070AD",
    "EPOCH": "2025-11-11T06:56:41.050464",
    "MEAN_MOTION": 15.40965297,
    "ECCENTRICITY": 0.0013838,
    "INCLINATION": 53.0607,
    "RA_OF_ASC_NODE": 288.1378,
    "ARG_OF_PERICENTER": 14.0236,
    "MEAN_ANOMALY": 346.115,
    "EPHEMERIS_TYPE": 0,
    "CLASSIFICATION_TYPE": "U",
    "NORAD_CAT_ID": 46559,
    "ELEMENT_SET_NO": 999,
    "REV_AT_EPOCH": 28250,
    "BSTAR": 0.001077,
    "MEAN_MOTION_DOT": 0.00045039,
    "MEAN_MOTION_DDOT": 0.0,
    "TLE_LINE1": "1 46559U 20070AD  25315.28936401  .00045039  00000+0  10770-2 0  9994",
    "TLE_LINE2": "2 46559  53.0607 288.1378 0013838  14.0236 346.1150 15.40965297282503",
    "COMMENT": "Grouped by shell and plane from TLE"
  },
  {
    "OBJECT_NAME": "STARLINK-1683",
    "OBJECT_ID": "20070AY",
    "EPOCH": "2025-11-11T05:01:14.608704",
    "MEAN_MOTION": 15.41317792,
    "ECCENTRICITY": 0.0011536,
    "INCLINATION": 53.0242,
    "RA_OF_ASC_NODE": 287.7345,
    "ARG_OF_PERICENTER": 13.0147,
    "MEAN_ANOMALY": 347.1153,
    "EPHEMERIS_TYPE": 0,
    "CLASSIFICATION_TYPE": "U",
    "NORAD_CAT_ID": 46578,
    "ELEMENT_SET_NO": 999,
    "REV_AT_EPOCH": 28250,
    "BSTAR": 0.0036303999999999998,
    "MEAN_MOTION_DOT": 0.00156694,
    "MEAN_MOTION_DDOT": 0.0,
    "TLE_LINE1": "1 46578U 20070AY  25315.20919686  .00156694  00000+0  36304-2 0  9994",
    "TLE_LINE2": "2 46578  53.0242 287.7345 0011536  13.0147 347.1153 15.41317792282507",
    "COMMENT": "Grouped by shell and plane from TLE"
  },
  {
    "OBJECT_NAME": "STARLINK-4078",
    "OBJECT_ID": "22053AK",
    "EPOCH": "2025-11-11T05:58:30.952704",
    "MEAN_MOTION": 15.38893567,
    "ECCENTRICITY": 0.0003226,
    "INCLINATION": 53.2174,
    "RA_OF_ASC_NODE": 286.1753,
    "ARG_OF_PERICENTER": 81.3543,
    "MEAN_ANOMALY": 278.7828,
    "EPHEMERIS_TYPE": 0,
    "CLASSIFICATION_TYPE": "U",
    "NORAD_CAT_ID": 52689,
    "ELEMENT_SET_NO": 999,
    "REV_AT_EPOCH": 19369,
    "BSTAR": 0.0015833,
    "MEAN_MOTION_DOT": 0.0006195,
    "MEAN_MOTION_DDOT": 0.0,
    "TLE_LINE1": "1 52689U 22053AK  25315.24896936  .00061950  00000+0  15833-2 0  9997",
    "TLE_LINE2": "2 52689  53.2174 286.1753 0003226  81.3543 278.7828 15.38893567193698",
    "COMMENT": "Grouped by shell and plane from TLE"
  },
  {
    "OBJECT_NAME": "STARLINK-31006",
    "OBJECT_ID": "24038B",
    "EPOCH": "2025-11-11T07:03:15.969312",
    "MEAN_MOTION": 15.27592889,
    "ECCENTRICITY": 0.0001004,
    "INCLINATION": 43.0045,
    "RA_OF_ASC_NODE": 285.2418,
    "ARG_OF_PERICENTER": 286.0739,
    "MEAN_ANOMALY": 74.0002,
    "EPHEMERIS_TYPE": 0,
    "CLASSIFICATION_TYPE": "U",
    "NORAD_CAT_ID": 59024,
    "ELEMENT_SET_NO": 999,
    "REV_AT_EPOCH": 9723,
    "BSTAR": 9.825300000000001e-05,
    "MEAN_MOTION_DOT": 2.444e-05,
    "MEAN_MOTION_DDOT": 0.0,
    "TLE_LINE1": "1 59024U 24038B   25315.29393483  .00002444  00000+0  98253-4 0  9998",
    "TLE_LINE2": "2 59024  43.0045 285.2418 0001004 286.0739  74.0002 15.27592889 97238",
    "COMMENT": "Grouped by shell and plane from TLE"
  },
  {
    "OBJECT_NAME": "STARLINK-31531",
    "OBJECT_ID": "24068Y",
    "EPOCH": "2025-11-11T05:48:32.866848",
    "MEAN_MOTION": 15.27604953,
    "ECCENTRICITY": 0.0001047,
    "INCLINATION": 43.0039,
    "RA_OF_ASC_NODE": 288.2922,
    "ARG_OF_PERICENTER": 283.9407,
    "MEAN_ANOMALY": 76.1328,
    "EPHEMERIS_TYPE": 0,
    "CLASSIFICATION_TYPE": "U",
    "NORAD_CAT_ID": 59477,
    "ELEMENT_SET_NO": 999,
    "REV_AT_EPOCH": 9103,
    "BSTAR": 0.0,
    "MEAN_MOTION_DOT": -4.98e-06,
    "MEAN_MOTION_DDOT": 0.0,
    "TLE_LINE1": "1 59477U 24068Y   25315.24204707 -.00000498  00000+0 -85689-5 0  9997",
    "TLE_LINE2": "2 59477  43.0039 288.2922 0001047 283.9407  76.1328 15.27604953 91033",
    "COMMENT": "Grouped by shell and plane from TLE"
  },
  {
    "OBJECT_NAME": "STARLINK-31733",
    "OBJECT_ID": "24071C",
    "EPOCH": "2025-11-11T07:17:10.801536",
    "MEAN_MOTION": 15.27592225,
    "ECCENTRICITY": 8.02e-05,
    "INCLINATION": 43.0037,
    "RA_OF_ASC_NODE": 288.0114,
    "ARG_OF_PERICENTER": 267.3519,
    "MEAN_ANOMALY": 92.7241,
    "EPHEMERIS_TYPE": 0,
    "CLASSIFICATION_TYPE": "U",
    "NORAD_CAT_ID": 59486,
    "ELEMENT_SET_NO": 999,
    "REV_AT_EPOCH": 9010,
    "BSTAR": 9.9269e-05,
    "MEAN_MOTION_DOT": 2.472e-05,
    "MEAN_MOTION_DDOT": 0.0,
    "TLE_LINE1": "1 59486U 24071C   25315.30359724  .00002472  00000+0  99269-4 0  9998",
    "TLE_LINE2": "2 59486  43.0037 288.0114 0000802 267.3519  92.7241 15.27592225 90103",
    "COMMENT": "Grouped by shell and plane from TLE"
  },
  {
    "OBJECT_NAME": "STARLINK-31657",
    "OBJECT_ID": "24071D",
    "EPOCH": "2025-11-11T06:07:04.712160",
    "MEAN_MOTION": 15.27592738,
    "ECCENTRICITY": 0.0001374,
    "INCLINATION": 43.0048,
    "RA_OF_ASC_NODE": 288.5084,
    "ARG_OF_PERICENTER": 254.4524,
    "MEAN_ANOMALY": 105.6176,
    "EPHEMERIS_TYPE": 0,
    "CLASSIFICATION_TYPE": "U",
    "NORAD_CAT_ID": 59487,
    "ELEMENT_SET_NO": 999,
    "REV_AT_EPOCH": 9009,
    "BSTAR": 7.7638e-05,
    "MEAN_MOTION_DOT": 1.876e-05,
    "MEAN_MOTION_DDOT": 0.0,
    "TLE_LINE1": "1 59487U 24071D   25315.25491565  .00001876  00000+0  77638-4 0  9996",
    "TLE_LINE2": "2 59487  43.0048 288.5084 0001374 254.4524 105.6176 15.27592738 90093",
    "COMMENT": "Grouped by shell and plane from TLE"
  },
  {
    "OBJECT_NAME": "STARLINK-31638",
    "OBJECT_ID": "24071F",
    "EPOCH": "2025-11-11T06:05:15.263232",
    "MEAN_MOTION": 15.27589023,
    "ECCENTRICITY": 0.0001234,
    "INCLINATION": 43.0036,
    "RA_OF_ASC_NODE": 288.4958,
    "ARG_OF_PERICENTER": 265.1525,
    "MEAN_ANOMALY": 94.9186,
    "EPHEMERIS_TYPE": 0,
    "CLASSIFICATION_TYPE": "U",
    "NORAD_CAT_ID": 59489,
    "ELEMENT_SET_NO": 999,
    "REV_AT_EPOCH": 9009,
    "BSTAR": 0.0005480000000000001,
    "MEAN_MOTION_DOT": 0.00014852,
    "MEAN_MOTION_DDOT": 0.0,
    "TLE_LINE1": "1 59489U 24071F   25315.25364888  .00014852  00000+0  54800-3 0  9998",
    "TLE_LINE2": "2 59489  43.0036 288.4958 0001234 265.1525  94.9186 15.27589023 90090",
    "COMMENT": "Grouped by shell and plane from TLE"
  },
  {
    "OBJECT_NAME": "STARLINK-31728",
    "OBJECT_ID": "24071N",
    "EPOCH": "2025-11-11T06:14:29.786208",
    "MEAN_MOTION": 15.27620201,
    "ECCENTRICITY": 0.0001588,
    "INCLINATION": 43.0046,
    "RA_OF_ASC_NODE": 288.5456,
    "ARG_OF_PERICENTER": 256.4272,
    "MEAN_ANOMALY": 103.6403,
    "EPHEMERIS_TYPE": 0,
    "CLASSIFICATION_TYPE": "U",
    "NORAD_CAT_ID": 59496,
    "ELEMENT_SET_NO": 999,
    "REV_AT_EPOCH": 9009,
    "BSTAR": 0.001483,
    "MEAN_MOTION_DOT": 0.00040823,
    "MEAN_MOTION_DDOT": 0.0,
    "TLE_LINE1": "1 59496U 24071N   25315.26006697  .00040823  00000+0  14830-2 0  9993",
    "TLE_LINE2": "2 59496  43.0046 288.5456 0001588 256.4272 103.6403 15.27620201 90091",
    "COMMENT": "Grouped by shell and plane from TLE"
  },
  {
    "OBJECT_NAME": "STARLINK-31720",
    "OBJECT_ID": "24071P",
    "EPOCH": "2025-11-11T07:08:08.843712",
    "MEAN_MOTION": 15.27588837,
    "ECCENTRICITY": 0.0001037,
    "INCLINATION": 43.001,
    "RA_OF_ASC_NODE": 288.8262,
    "ARG_OF_PERICENTER": 265.9635,
    "MEAN_ANOMALY": 94.1098,
    "EPHEMERIS_TYPE": 0,
    "CLASSIFICATION_TYPE": "U",
    "NORAD_CAT_ID": 59497,
    "ELEMENT_SET_NO": 999,
    "REV_AT_EPOCH": 9009,
    "BSTAR": 9.5258e-05,
    "MEAN_MOTION_DOT": 2.361e-05,
    "MEAN_MOTION_DDOT": 0.0,
    "TLE_LINE1": "1 59497U 24071P   25315.29732458  .00002361  00000+0  95258-4 0  9998",
    "TLE_LINE2": "2 59497  43.0010 288.8262 0001037 265.9635  94.1098 15.27588837 90090",
    "COMMENT": "Grouped by shell and plane from TLE"
  },
  {
    "OBJECT_NAME": "STARLINK-31731",
    "OBJECT_ID": "24071Q",
    "EPOCH": "2025-11-11T07:15:20.310624",
    "MEAN_MOTION": 15.27601315,
    "ECCENTRICITY": 0.0001448,
    "INCLINATION": 43.0021,
    "RA_OF_ASC_NODE": 288.0001,
    "ARG_OF_PERICENTER": 275.6769,
    "MEAN_ANOMALY": 84.3917,
    "EPHEMERIS_TYPE": 0,
    "CLASSIFICATION_TYPE": "U",
    "NORAD_CAT_ID": 59498,
    "ELEMENT_SET_NO": 999,
    "REV_AT_EPOCH": 9010,
    "BSTAR": 0.0014514,
    "MEAN_MOTION_DOT": 0.00039919,
    "MEAN_MOTION_DDOT": 0.0,
    "TLE_LINE1": "1 59498U 24071Q   25315.30231841  .00039919  00000+0  14514-2 0  9994",
    "TLE_LINE2": "2 59498  43.0021 288.0001 0001448 275.6769  84.3917 15.27601315 90108",
    "COMMENT": "Grouped by shell and plane from TLE"
  },
  {
    "OBJECT_NAME": "STARLINK-31742",
    "OBJECT_ID": "24071R",
    "EPOCH": "2025-11-10T23:37:31.280448",
    "MEAN_MOTION": 15.27575695,
    "ECCENTRICITY": 0.0001067,
    "INCLINATION": 43.0034,
    "RA_OF_ASC_NODE": 289.9149,
    "ARG_OF_PERICENTER": 275.9749,
    "MEAN_ANOMALY": 84.0981,
    "EPHEMERIS_TYPE": 0,
    "CLASSIFICATION_TYPE": "U",
    "NORAD_CAT_ID": 59499,
    "ELEMENT_SET_NO": 999,
    "REV_AT_EPOCH": 9005,
    "BSTAR": 0.00011089,
    "MEAN_MOTION_DOT": 2.79e-05,
    "MEAN_MOTION_DDOT": 0.0,
    "TLE_LINE1": "1 59499U 24071R   25314.98438982  .00002790  00000+0  11089-3 0  9995",
    "TLE_LINE2": "2 59499  43.0034 289.9149 0001067 275.9749  84.0981 15.27575695 90057",
    "COMMENT": "Grouped by shell and plane from TLE"
  }
]